STARLINK-31601          
1 59209U 24046J   26068.55770725 -.00000281  00000+0  26407-5 0  9996
2 59209  53.1607 155.6443 0001081  89.9290 270.1835 15.30182139113031
TOMORROW-S2             
1 60485U 24149T   26068.75188364  .00008133  00000+0  27683-3 0  9990
2 60485  97.3857 150.0385 0001648 234.3331 125.7757 15.30674935 86869
