[{"OBJECT_NAME":"STARLINK-31601","OBJECT_ID":"2024-046J","EPOCH":"2026-03-09T13:23:05.906400","MEAN_MOTION":15.30182139,"ECCENTRICITY":0.0001081,"INCLINATION":53.1607,"RA_OF_ASC_NODE":155.6443,"ARG_OF_PERICENTER":89.929,"MEAN_ANOMALY":270.1835,"EPHEMERIS_TYPE":0,"CLASSIFICATION_TYPE":"U","NORAD_CAT_ID":59209,"ELEMENT_SET_NO":999,"REV_AT_EPOCH":11303,"BSTAR":2.6407e-6,"MEAN_MOTION_DOT":-2.81e-6,"MEAN_MOTION_DDOT":0},{"OBJECT_NAME":"TOMORROW-S2","OBJECT_ID":"2024-149T","EPOCH":"2026-03-09T18:02:42.746496","MEAN_MOTION":15.30674935,"ECCENTRICITY":0.0001648,"INCLINATION":97.3857,"RA_OF_ASC_NODE":150.0385,"ARG_OF_PERICENTER":234.3331,"MEAN_ANOMALY":125.7757,"EPHEMERIS_TYPE":0,"CLASSIFICATION_TYPE":"U","NORAD_CAT_ID":60485,"ELEMENT_SET_NO":999,"REV_AT_EPOCH":8686,"BSTAR":0.00027683033,"MEAN_MOTION_DOT":8.133e-5,"MEAN_MOTION_DDOT":0}]
